OBJECT B                
1 51825U 22019B   25323.97145947  .00041048  00000+0  72445-3 0  9997
2 51825  97.3723  43.0363 0008681 170.3741 189.7679 15.50231830207115
